NORAD_CAT_ID,OBJECT_NAME,OBJECT_TYPE,EPOCH,MEAN_MOTION,ECCENTRICITY,INCLINATION,RA_OF_ASC_NODE,ARG_OF_PERICENTER,MEAN_ANOMALY,BSTAR,MEAN_MOTION_DOT,MEAN_MOTION_DDOT,TLE_LINE0,TLE_LINE1,TLE_LINE2,SEMIMAJOR_AXIS,PERIOD,APOGEE,PERIGEE,DECAYED
51965.0,STARLINK-3696,PAYLOAD,2023-11-07 06:58:58,15.04751159,0.0001371,53.0545,263.9352,95.8122,264.3023,-0.00043739,-6.504e-05,0.0,0 STARLINK-3696,1 51965U 22025K   23311.29096040 -.00006504  00000-0 -43739-3 0  9993,2 51965  53.0545 263.9352 0001371  95.8122 264.3023 15.04751159 92266,6930.407,95.697,553.222,551.321,0.0
51965.0,STARLINK-3696,PAYLOAD,2023-11-08 03:42:20,15.04766676,0.0001173,53.0544,260.0704,107.3289,252.7828,0.00047295,6.471e-05,0.0,0 STARLINK-3696,1 51965U 22025K   23312.15440535  .00006471  00000-0  47295-3 0  9993,2 51965  53.0544 260.0704 0001173 107.3289 252.7828 15.04766676 93486,6930.359,95.696,553.037,551.411,0.0
51965.0,STARLINK-3696,PAYLOAD,2023-11-09 03:36:59,15.0476963,0.0001296,53.0536,255.6127,120.2192,239.8924,0.00049856,6.837e-05,0.0,0 STARLINK-3696,1 51965U 22025K   23313.15068816  .00006837  00000-0  49856-3 0  9993,2 51965  53.0536 255.6127 0001296 120.2192 239.8924 15.04769630 93632,6930.35,95.696,553.113,551.317,0.0
51965.0,STARLINK-3696,PAYLOAD,2023-11-09 05:12:37,15.04778012,0.0001171,53.054,255.3133,116.9604,243.1504,0.00080616,0.00011237,0.0,0 STARLINK-3696,1 51965U 22025K   23313.21710604  .00011237  00000-0  80616-3 0  9998,2 51965  53.0540 255.3133 0001171 116.9604 243.1504 15.04778012 92559,6930.324,95.695,553.001,551.378,0.0
51965.0,STARLINK-3696,PAYLOAD,2023-11-10 03:31:37,15.04778207,0.0001317,53.0538,251.1491,98.7786,261.3352,0.00019828,2.551e-05,0.0,0 STARLINK-3696,1 51965U 22025K   23314.14696627  .00002551  00000-0  19828-3 0  9995,2 51965  53.0538 251.1491 0001317  98.7786 261.3352 15.04778207 93782,6930.324,95.695,553.101,551.276,0.0
51965.0,STARLINK-3696,PAYLOAD,2023-11-10 13:05:29,15.04763837,0.000172,53.0545,249.365,88.672,271.4465,-7.6337e-05,-1.365e-05,0.0,0 STARLINK-3696,1 51965U 22025K   23314.54548487 -.00001365  00000-0 -76337-4 0  9992,2 51965  53.0545 249.3650 0001720  88.6720 271.4465 15.04763837 92756,6930.368,95.696,553.425,551.041,0.0
51965.0,STARLINK-3696,PAYLOAD,2023-11-11 05:01:55,15.04773335,0.0001441,53.0537,246.3893,91.0633,269.0521,5.2934e-05,4.78e-06,0.0,0 STARLINK-3696,1 51965U 22025K   23315.20967127  .00000478  00000-0  52934-4 0  9991,2 51965  53.0537 246.3893 0001441  91.0633 269.0521 15.04773335 93946,6930.339,95.695,553.202,551.205,0.0
51965.0,STARLINK-3696,PAYLOAD,2023-11-11 13:00:08,15.04765955,0.0001371,53.0537,244.9029,96.191,263.9235,7.6424e-05,8.12e-06,0.0,0 STARLINK-3696,1 51965U 22025K   23315.54176639  .00000812  00000-0  76424-4 0  9990,2 51965  53.0537 244.9029 0001371  96.1910 263.9235 15.04765955 92906,6930.361,95.696,553.176,551.276,0.0
51965.0,STARLINK-3696,PAYLOAD,2023-11-11 19:22:43,15.04768414,0.000148,53.0544,243.7117,102.4839,257.6315,2.6163e-06,-2.4e-06,0.0,0 STARLINK-3696,1 51965U 22025K   23315.80744305 -.00000240  00000-0  26163-5 0  9992,2 51965  53.0544 243.7117 0001480 102.4839 257.6315 15.04768414 92947,6930.354,95.696,553.244,551.193,0.0
51965.0,STARLINK-3696,PAYLOAD,2023-11-12 01:45:17,15.04772602,0.0001435,53.0535,242.5244,101.0117,259.1033,0.00010247,1.184e-05,0.0,0 STARLINK-3696,1 51965U 22025K   23316.07311529  .00001184  00000-0  10247-3 0  9991,2 51965  53.0535 242.5244 0001435 101.0117 259.1033 15.04772602 92981,6930.341,95.696,553.2,551.211,0.0
51965.0,STARLINK-3696,PAYLOAD,2023-11-12 22:28:38,15.0476976,0.0001477,53.0536,238.658,91.6555,268.4602,0.00022259,2.898e-05,0.0,0 STARLINK-3696,1 51965U 22025K   23316.93656184  .00002898  00000-0  22259-3 0  9994,2 51965  53.0536 238.6580 0001477  91.6555 268.4602 15.04769760 93119,6930.35,95.696,553.238,551.191,0.0
51965.0,STARLINK-3696,PAYLOAD,2023-11-13 01:39:55,15.04775125,0.00015,53.0536,238.0641,89.2519,270.8641,0.00019922,2.564e-05,0.0,0 STARLINK-3696,1 51965U 22025K   23317.06939685  .00002564  00000-0  19922-3 0  9992,2 51965  53.0536 238.0641 0001500  89.2519 270.8641 15.04775125 94226,6930.333,95.695,553.238,551.158,0.0
51965.0,STARLINK-3696,PAYLOAD,2023-11-13 04:51:12,15.04779623,0.0001498,53.0539,237.4672,102.687,257.4286,0.00029902,3.989e-05,0.0,0 STARLINK-3696,1 51965U 22025K   23317.20223113  .00003989  00000-0  29902-3 0  9991,2 51965  53.0539 237.4672 0001498 102.6870 257.4286 15.04779623 93156,6930.319,95.695,553.222,551.146,0.0
51965.0,STARLINK-3696,PAYLOAD,2023-11-14 01:34:34,15.0476674,0.0001187,53.0535,233.6027,97.4163,262.696,3.4738e-05,2.18e-06,0.0,0 STARLINK-3696,1 51965U 22025K   23318.06568074  .00000218  00000-0  34738-4 0  9990,2 51965  53.0535 233.6027 0001187  97.4163 262.6960 15.04766740 94373,6930.359,95.696,553.046,551.401,0.0
51965.0,STARLINK-3696,PAYLOAD,2023-11-14 11:08:25,15.04774228,0.0001152,53.0537,231.8129,77.9978,282.1139,0.00014105,1.735e-05,0.0,0 STARLINK-3696,1 51965U 22025K   23318.46418919  .00001735  00000-0  14105-3 0  9996,2 51965  53.0537 231.8129 0001152  77.9978 282.1139 15.04774228 93348,6930.336,95.695,552.999,551.402,0.0
51965.0,STARLINK-3696,PAYLOAD,2023-11-15 01:29:14,15.04733556,0.0001666,53.054,229.1391,88.5049,271.613,-0.00061306,-8.997e-05,0.0,0 STARLINK-3696,1 51965U 22025K   23319.06197781 -.00008997  00000-0 -61306-3 0  9998,2 51965  53.0540 229.1391 0001666  88.5049 271.6130 15.04733556 94524,6930.461,95.698,553.48,551.171,0.0
51965.0,STARLINK-3696,PAYLOAD,2023-11-15 20:36:57,15.047682,0.0001955,53.0542,225.5706,65.2076,294.9115,4.2103e-05,3.23e-06,0.0,0 STARLINK-3696,1 51965U 22025K   23319.85899397  .00000323  00000-0  42103-4 0  9995,2 51965  53.0542 225.5706 0001955  65.2076 294.9115 15.04768200 93556,6930.354,95.696,553.574,550.864,0.0
51965.0,STARLINK-3696,PAYLOAD,2023-11-16 02:59:30,15.04776073,0.0001447,53.0542,224.381,90.755,269.3604,0.0001571,1.964e-05,0.0,0 STARLINK-3696,1 51965U 22025K   23320.12466225  .00001964  00000-0  15710-3 0  9992,2 51965  53.0542 224.3810 0001447  90.7550 269.3604 15.04776073 94686,6930.33,95.695,553.198,551.192,0.0
51965.0,STARLINK-3696,PAYLOAD,2023-11-16 23:42:53,15.04749913,0.0001724,53.0545,220.512,106.9911,253.1267,0.00055203,7.597e-05,0.0,0 STARLINK-3696,1 51965U 22025K   23320.98811917  .00007597  00000-0  55203-3 0  9997,2 51965  53.0545 220.5120 0001724 106.9911 253.1267 15.04749913 94814,6930.41,95.697,553.47,551.081,0.0
51965.0,STARLINK-3696,PAYLOAD,2023-11-17 10:52:23,15.04760453,0.0001615,53.0543,218.431,103.314,256.8028,0.00033053,4.437e-05,0.0,0 STARLINK-3696,1 51965U 22025K   23321.45304795  .00004437  00000-0  33053-3 0  9990,2 51965  53.0543 218.4310 0001615 103.3140 256.8028 15.04760453 93796,6930.378,95.696,553.362,551.124,0.0
51965.0,STARLINK-3696,PAYLOAD,2023-11-17 23:37:31,15.04771729,0.0001529,53.0552,216.0521,100.5247,259.5913,4.0039e-05,2.94e-06,0.0,0 STARLINK-3696,1 51965U 22025K   23321.98439193  .00000294  00000-0  40039-4 0  9999,2 51965  53.0552 216.0521 0001529 100.5247 259.5913 15.04771729 94966,6930.343,95.696,553.268,551.149,0.0
51965.0,STARLINK-3696,PAYLOAD,2023-11-19 02:43:27,15.04765797,0.0001551,53.055,210.9976,92.3873,267.7292,4.8866e-05,4.2e-06,0.0,0 STARLINK-3696,1 51965U 22025K   23323.11351489  .00000420  00000-0  48866-4 0  9994,2 51965  53.0550 210.9976 0001551  92.3873 267.7292 15.04765797 95138,6930.362,95.696,553.302,551.152,0.0
51965.0,STARLINK-3696,PAYLOAD,2023-11-19 21:51:10,15.04772488,0.0001547,53.0545,207.4293,91.7017,268.4148,8.0228e-05,8.67e-06,0.0,0 STARLINK-3696,1 51965U 22025K   23323.91053443  .00000867  00000-0  80228-4 0  9994,2 51965  53.0545 207.4293 0001547  91.7017 268.4148 15.04772488 94168,6930.341,95.696,553.278,551.134,0.0
51965.0,STARLINK-3696,PAYLOAD,2023-11-19 23:26:48,15.04774394,0.0001482,53.0541,207.1322,88.4431,271.6727,0.00010569,1.23e-05,0.0,0 STARLINK-3696,1 51965U 22025K   23323.97695121  .00001230  00000-0  10569-3 0  9990,2 51965  53.0541 207.1322 0001482  88.4431 271.6727 15.04774394 95264,6930.335,95.695,553.227,551.173,0.0
51965.0,STARLINK-3696,PAYLOAD,2023-11-20 09:00:40,15.0476975,0.0001496,53.0542,205.348,86.6408,273.4751,0.00010848,1.27e-05,0.0,0 STARLINK-3696,1 51965U 22025K   23324.37546686  .00001270  00000-0  10848-3 0  9990,2 51965  53.0542 205.3480 0001496  86.6408 273.4751 15.04769750 94232,6930.35,95.696,553.251,551.178,0.0
51965.0,STARLINK-3696,PAYLOAD,2023-11-20 20:10:11,15.04764155,0.0001576,53.0548,203.2664,88.8897,271.2272,5.2165e-06,-2.03e-06,0.0,0 STARLINK-3696,1 51965U 22025K   23324.84040515 -.00000203  00000-0  52165-5 0  9998,2 51965  53.0548 203.2664 0001576  88.8897 271.2272 15.04764155 95390,6930.367,95.696,553.324,551.14,0.0
51965.0,STARLINK-3696,PAYLOAD,2023-11-20 21:45:49,15.04763817,0.00016,53.0548,202.969,88.7156,271.4016,-2.5498e-06,-3.13e-06,0.0,0 STARLINK-3696,1 51965U 22025K   23324.90682398 -.00000313  00000-0 -25498-5 0  9998,2 51965  53.0548 202.9690 0001600  88.7156 271.4016 15.04763817 94313,6930.368,95.696,553.342,551.124,0.0
51965.0,STARLINK-3696,PAYLOAD,2023-11-21 02:32:45,15.0476642,0.0001533,53.0544,202.0759,84.2158,275.9005,3.7314e-05,2.55e-06,0.0,0 STARLINK-3696,1 51965U 22025K   23325.10607741  .00000255  00000-0  37314-4 0  9992,2 51965  53.0544 202.0759 0001533  84.2158 275.9005 15.04766420 94347,6930.36,95.696,553.287,551.162,0.0
51965.0,STARLINK-3696,PAYLOAD,2023-11-21 20:04:49,15.04770861,0.0001567,53.0543,198.8043,85.1885,274.9283,3.1368e-06,-2.32e-06,0.0,0 STARLINK-3696,1 51965U 22025K   23325.83668342 -.00000232  00000-0  31368-5 0  9996,2 51965  53.0543 198.8043 0001567  85.1885 274.9283 15.04770861 94451,6930.346,95.696,553.297,551.125,0.0
51965.0,STARLINK-3696,PAYLOAD,2023-11-22 00:51:44,15.0477082,0.0001547,53.0543,197.9122,85.2889,274.8276,9.96e-05,1.143e-05,0.0,0 STARLINK-3696,1 51965U 22025K   23326.03593707  .00001143  00000-0  99600-4 0  9994,2 51965  53.0543 197.9122 0001547  85.2889 274.8276 15.04770820 95572,6930.346,95.696,553.283,551.139,0.0
